KUIPER-00232            
1 67148U 25301R   26026.37838754  .00043685  00000+0  11735-2 0  9992
2 67148  51.8725 269.4288 0002909 135.1230 224.9992 15.37484168  7236
KUIPER-00241            
1 67149U 25301S   26027.25001157 -.00013373  00000+0 -38285-3 0  9993
2 67149  51.8741 265.3712 0002388 197.1830 234.8095 15.34566631  5186
KUIPER-00245            
1 67150U 25301T   26027.25001157 -.00913321  00000+0 -68942-1 0  9998
2 67150  51.8892 267.9899 0009896 250.7364 259.4180 15.04849351  5513
KUIPER-00246            
1 67151U 25301U   26026.65471278  .00021700  00000+0  59525-3 0  9995
2 67151  51.8733 268.2764 0004107 216.3598 143.7110 15.37200349  7299
KUIPER-00247            
1 67152U 25301V   26027.03462425  .00046743  00000+0  13507-2 0  9996
2 67152  51.8608 267.0285 0011908 263.1228  96.8403 15.35117747  7327
KUIPER-00248            
1 67153U 25301W   26026.75609917  .00049768  00000+0  14150-2 0  9999
2 67153  51.8669 268.1840 0009565 244.0805 115.9195 15.35622132  7453
KUIPER-00249            
1 67154U 25301X   26027.00002315  .00045731  00000+0  12710-2 0  9994
2 67154  51.8644 266.8869 0008799 244.7521  80.4152 15.36375395  5367
KUIPER-00250            
1 67155U 25301Y   26026.40687479  .00032242  00000+0  88439-3 0  9993
2 67155  51.8706 269.6097 0007439 231.7298 128.3020 15.36961378  7267
